MOLNIYA 2-9             
1 07276U 74026A   22297.73805181  .00000150  00000+0  00000+0 0  9990
2 07276  64.2783 209.2629 6430483 279.6669  17.9118  2.45096671252384
MOLNIYA 2-10            
1 07376U 74056A   22294.69932108  .00000410  00000+0  00000+0 0  9995
2 07376  64.2756  81.6551 6752871 285.7144  13.7186  2.01060997352895
MOLNIYA 1-S             
1 07392U 74060A   22297.66022069  .00000105  00000+0  00000+0 0  9995
2 07392   4.7952 281.0033 0011297 216.2947 187.1753  1.00216564120828
MOLNIYA 1-29            
1 07780U 75036A   22297.27942911  .00000004  00000+0 -11068+0 0  9999
2 07780  63.4140 201.0359 6851329 288.2865  12.4372  2.00609002348200
MOLNIYA 2-14            
1 08195U 75081A   22295.35794612  .00001360  00000+0  00000+0 0  9999
2 08195  63.3844 174.4678 6765742 292.5314  11.8593  2.02075301345451
MOLNIYA 1-32            
1 08601U 76006A   22297.01113020  .00000215  00000+0 -17601-1 0  9998
2 08601  63.4822 279.8978 7205464 283.8948  11.2058  1.99943870 55234
MOLNIYA 1-36            
1 09880U 77021A   22297.85230496 -.00001246  00000+0  00000+0 0  9993
2 09880  63.5032 251.6904 7124413 289.6101  10.3800  2.00832936232059
MOLNIYA 3-8             
1 10455U 77105A   22297.09667319 -.00001459  00000+0 -16375-2 0  9992
2 10455  63.4294 338.3374 7355444 282.4026  10.7670  2.00734580329725
MOLNIYA 1-40            
1 10925U 78055A   22297.30008451 -.00000148  00000+0  00000+0 0  9997
2 10925  63.4697  29.7754 7270347 280.6981  11.8470  2.00737948325261
MOLNIYA 3-10            
1 11057U 78095A   22297.41529476 -.00000196  00000+0 -78338-3 0  9992
2 11057  63.2234 351.8338 5786729 311.2920  11.7239  4.09861192389013
MOLNIYA 3-13            
1 11896U 80063A   22296.55676575  .00000103  00000+0  00000+0 0  9991
2 11896  62.7344 120.9494 7126159 276.4669  13.8976  2.00660503309663
MOLNIYA 1-49            
1 12156U 81009A   22297.02042699 -.00000572  00000+0 -33861-3 0  9996
2 12156  61.6948 145.7628 7298845 264.2446  16.5956  2.05705140224133
MOLNIYA 1-52            
1 13012U 81123A   22296.98985293  .00001169  00000+0  16539-1 0  9997
2 13012  61.6577 260.1961 7220732 256.5714  20.5300  2.00413708299150
MOLNIYA 1-53            
1 13070U 82015A   22297.16985521 -.00001140  00000+0 -24353-1 0  9991
2 13070  62.5867 198.4429 7003716 282.9692  12.9171  2.00597137297841
MOLNIYA 3-20            
1 13875U 83015A   22297.21610860  .00001350  00000+0  14287-2 0  9999
2 13875  62.6679 332.3487 7396272 259.3047  17.5092  2.00682356226295
MOLNIYA 1-56            
1 13890U 83019A   22297.23989674  .00000927  00000+0  43026-3 0  9997
2 13890  62.9086 357.3654 7453169 265.1574  14.8792  1.99857510289175
MOLNIYA 1-63            
1 15429U 84124A   22289.12693847  .00000005  00000+0  00000+0 0  9996
2 15429  63.7610 156.1841 6669863 258.8194 345.4262  2.00865892277173
MOLNIYA 3-24            
1 15738U 85040A   22296.86339157 -.00000059  00000+0 -16220-2 0  9992
2 15738  63.6357  58.7193 6842141 247.2370  30.4057  2.55627624307154
MOLNIYA 3-27            
1 16393U 85117A   22296.28870393  .00000032  00000+0  00000+0 0  9998
2 16393  64.3545  64.7116 7023655 247.6450  27.9008  2.12396989276899
MOLNIYA 1-69            
1 17078U 86089A   22295.94866928  .00000450  00000+0  00000+0 0  9993
2 17078  63.9886 174.4412 6672346 257.1349  25.9997  2.00685326263388
MOLNIYA 3-31            
1 17328U 87008A   22297.05517022  .00000444  00000+0  00000+0 0  9998
2 17328  63.6951 113.2174 7090985 253.4888  23.5548  2.00665847258446
MOLNIYA 1-71            
1 18946U 88017A   22297.50227598 -.00000107  00000+0  00000+0 0  9999
2 18946  63.3835 106.4951 7203666 256.3266  20.8991  2.00602499253645
MOLNIYA 1-75            
1 19807U 89014A   22291.25184058 -.00000095  00000+0  00000+0 0  9999
2 19807  64.0178 271.1796 6821740 266.4492  19.8318  2.00578157246464
MOLNIYA 1-80            
1 21118U 91012A   22295.79686520  .00000815  00000+0  00000+0 0  9991
2 21118  65.1971 319.1185 6766027 275.9979  16.6072  2.05235738233593
MOLNIYA 3-40            
1 21196U 91022A   22295.42466375 -.00000505  00000+0  00000+0 0  9999
2 21196  65.0954 312.8061 6794309 272.8294  17.5116  2.02999166232230
MOLNIYA 1-81            
1 21426U 91043A   22297.62900315 -.00000164  00000+0  00000+0 0  9990
2 21426  64.0599 327.6884 7084385 266.2992  17.5550  2.00632950229732
MOLNIYA 3-41            
1 21706U 91065A   22297.10132226 -.00000882  00000+0  00000+0 0  9993
2 21706  64.0930 151.9287 6882747 254.6862  25.1310  2.04360241229498
MOLNIYA 3-42            
1 22178U 92067A   22297.17827350  .00000197  00000+0  00000+0 0  9994
2 22178  64.6707 202.4349 6420661 264.9623  24.3337  2.20434829 82896
MOLNIYA 1-86            
1 22671U 93035A   22297.72584885  .00000282  00000+0  29992-3 0  9992
2 22671  63.0811 161.7242 4863328   9.0941 357.3457  5.62747458359570
MOLNIYA 1-87            
1 22949U 93079A   22297.70160868  .00000534  00000+0  00000+0 0  9992
2 22949  64.0888  77.4063 6897455 283.5763  13.4266  2.02846174211906
MOLNIYA 1-88            
1 23420U 94081A   22296.74698351  .00000129  00000+0  00000+0 0  9997
2 23420  64.2782 167.4653 5795996 280.6722  22.3820  3.34495197117990
MOLNIYA 3-47            
1 23642U 95042A   22297.51154412  .00001275  00000+0  00000+0 0  9995
2 23642  64.2202  59.0617 6944492 283.8500  13.0828  2.01952146199716
MOLNIYA 1-90            
1 24960U 97054A   22297.05933904  .00000132  00000+0 -82916-3 0  9996
2 24960  63.6667 133.5881 6102157 297.7985  14.0397  3.18687381212100
MOLNIYA 1-91            
1 25485U 98054A   22297.22264641  .00000209  00000+0  22925-2 0  9991
2 25485  63.0749 130.1977 6770645 291.8851 215.2854  2.36442311181421
MOLNIYA 3-50            
1 25847U 99036A   22297.09853015 -.00000260  00000+0 -36636-2 0  9991
2 25847  63.2647 314.7016 7353767 282.3530  10.7067  2.00671647170696
